SOYUZ-MS 28             
1 66664U 25275A   25353.05456139  .00006809  00000+0  12867-3 0  9999
2 66664  51.6316 111.2076 0003176 269.7772  90.2853 15.49660414  1285
1998-067XS              
1 66906U 98067XS  25352.59360331  .00023614  00000+0  40765-3 0  9994
2 66906  51.6311 113.3804 0003066 230.5170 129.5548 15.50877887  2528
1998-067XT              
1 66907U 98067XT  25352.58674511  .00053950  00000+0  87659-3 0  9991
2 66907  51.6304 113.3340 0003941 262.1658  97.8884 15.52162368  2523
1998-067XU              
1 66908U 98067XU  25352.58606995  .00054298  00000+0  87908-3 0  9996
2 66908  51.6306 113.3296 0003983 260.0245 100.0295 15.52259493  2520
SILVERSAT               
1 66909U 98067XV  25352.58523640  .00059069  00000+0  95010-3 0  9996
2 66909  51.6304 113.3244 0003867 263.4051  96.6498 15.52406005  2523
1998-067XW              
1 66910U 98067XW  25352.58346219  .00050492  00000+0  81329-3 0  9992
2 66910  51.6304 113.3129 0004322 240.7939 119.2619 15.52431880  2523
1998-067XX              
1 66911U 98067XX  25352.64586867  .00063428  00000+0  10034-2 0  9992
2 66911  51.6301 112.9797 0004036 247.1524 112.9040 15.52835677  2520
1998-067XY              
1 66912U 98067XY  25352.58918922  .00043076  00000+0  71421-3 0  9992
2 66912  51.6305 113.3494 0004078 255.7838 104.2699 15.51695277  2515
